*******************************************************************************
Ephemeris / WWW_USER Mon Jul 15 19:10:38 2024 Pasadena, USA      / Horizons    
*******************************************************************************
Target body name: (2018 RY7)                      {source: JPL#20}
Center body name: Earth (399)                     {source: DE441}
Center-site name: Gemini South Obs., Cerro Pachon
*******************************************************************************
Start time      : A.D. 2018-Nov-28 23:37:00.0000 UT      
Stop  time      : A.D. 2018-Nov-29 09:24:00.0000 UT      
Step-size       : 1 minutes
*******************************************************************************
Target pole/equ : undefined
Target radii    : undefined                                                    
Center geodetic : 289.2634, -30.2406227, 2.71233  {E-lon(deg),Lat(deg),Alt(km)}
Center cylindric: 289.2634,5517.21435,-3194.81213 {E-lon(deg),Dxy(km),Dz(km)}
Center pole/equ : ITRF93                          {East-longitude positive}
Center radii    : 6378.137, 6378.137, 6356.752 km {Equator_a, b, pole_c}       
Target primary  : Sun
Vis. interferer : MOON (R_eq= 1737.400) km        {source: DE441}
Rel. light bend : Sun                             {source: DE441}
Rel. lght bnd GM: 1.3271E+11 km^3/s^2                                          
Small-body perts: Yes                             {source: SB441-N16}
Atmos refraction: NO (AIRLESS)
RA format       : HMS
Time format     : CAL 
Calendar mode   : Mixed Julian/Gregorian
RTS-only print  : NO       
EOP file        : eop.240715.p241008                                           
EOP coverage    : DATA-BASED 1962-JAN-20 TO 2024-JUL-15. PREDICTS-> 2024-OCT-07
Units conversion: 1 au= 149597870.700 km, c= 299792.458 km/s, 1 day= 86400.0 s 
Table cut-offs 1: Elevation (-90.0deg=NO ),Airmass (>38.000=NO), Daylight (YES)
Table cut-offs 2: Solar elongation (  0.0,180.0=NO ),Local Hour Angle( 0.0=NO )
Table cut-offs 3: RA/DEC angular rate (     0.0=NO )                           
*******************************************************************************
Initial IAU76/J2000 heliocentric ecliptic osculating elements (au, days, deg.):
  EPOCH=  2458422.5 ! 2018-Oct-31.00 (TDB)         Residual RMS= .22459        
   EC= .1470549687381346   QR= .8667733479166969   TP= 2458516.8896767548      
   OM= 2.838668085760325   W=  136.9006026425241   IN= 13.35135890147074       
  Equivalent ICRF heliocentric cartesian coordinates (au, au/d):
   X= 8.791791513870114E-01  Y= 4.508422091141234E-01  Z= 3.244113040133835E-01
  VX=-1.085418916943652E-02 VY= 1.006005810562689E-02 VZ= 7.673980932675997E-03
Asteroid physical parameters (km, seconds, rotational period in hours):        
   GM= n.a.                RAD= n.a.               ROTPER= n.a.                
   H= 24.4                 G= .150                 B-V= n.a.                   
                           ALBEDO= n.a.            STYP= n.a.                  
*******************************************************************************
 Date__(UT)__HR:MN     R.A._________(ICRF)_________DEC
******************************************************
$$SOE
 2018-Nov-28 23:37 C   19 52 02.109386 +39 19 32.28300
 2018-Nov-28 23:38 C   19 52 02.041310 +39 19 32.59415
 2018-Nov-28 23:39 C   19 52 01.973280 +39 19 32.90503
 2018-Nov-28 23:40 C   19 52 01.905295 +39 19 33.21565
 2018-Nov-28 23:41 C   19 52 01.837356 +39 19 33.52602
 2018-Nov-28 23:42 C   19 52 01.769463 +39 19 33.83613
 2018-Nov-28 23:43 C   19 52 01.701615 +39 19 34.14598
 2018-Nov-28 23:44 C   19 52 01.633814 +39 19 34.45558
 2018-Nov-28 23:45 C   19 52 01.566060 +39 19 34.76493
 2018-Nov-28 23:46 C   19 52 01.498351 +39 19 35.07403
 2018-Nov-28 23:47 C   19 52 01.430689 +39 19 35.38288
 2018-Nov-28 23:48 C   19 52 01.363074 +39 19 35.69148
 2018-Nov-28 23:49 C   19 52 01.295506 +39 19 35.99983
 2018-Nov-28 23:50 C   19 52 01.227985 +39 19 36.30795
 2018-Nov-28 23:51 C   19 52 01.160510 +39 19 36.61581
 2018-Nov-28 23:52 C   19 52 01.093083 +39 19 36.92344
 2018-Nov-28 23:53 C   19 52 01.025704 +39 19 37.23083
 2018-Nov-28 23:54 C   19 52 00.958372 +39 19 37.53798
 2018-Nov-28 23:55 C   19 52 00.891087 +39 19 37.84489
 2018-Nov-28 23:56 N   19 52 00.823851 +39 19 38.15156
 2018-Nov-28 23:57 N   19 52 00.756662 +39 19 38.45801
 2018-Nov-28 23:58 N   19 52 00.689521 +39 19 38.76422
 2018-Nov-28 23:59 N   19 52 00.622429 +39 19 39.07020
 2018-Nov-29 00:00 N   19 52 00.555385 +39 19 39.37595
 2018-Nov-29 00:01 N   19 52 00.488389 +39 19 39.68147
 2018-Nov-29 00:02 N   19 52 00.421442 +39 19 39.98677
 2018-Nov-29 00:03 N   19 52 00.354544 +39 19 40.29184
 2018-Nov-29 00:04 N   19 52 00.287694 +39 19 40.59669
 2018-Nov-29 00:05 N   19 52 00.220893 +39 19 40.90132
 2018-Nov-29 00:06 N   19 52 00.154142 +39 19 41.20573
 2018-Nov-29 00:07 N   19 52 00.087439 +39 19 41.50992
 2018-Nov-29 00:08 N   19 52 00.020786 +39 19 41.81390
 2018-Nov-29 00:09 N   19 51 59.954183 +39 19 42.11766
 2018-Nov-29 00:10 N   19 51 59.887628 +39 19 42.42120
 2018-Nov-29 00:11 N   19 51 59.821124 +39 19 42.72454
 2018-Nov-29 00:12 N   19 51 59.754669 +39 19 43.02767
 2018-Nov-29 00:13 N   19 51 59.688265 +39 19 43.33058
 2018-Nov-29 00:14 N   19 51 59.621910 +39 19 43.63329
 2018-Nov-29 00:15 N   19 51 59.555605 +39 19 43.93580
 2018-Nov-29 00:16 N   19 51 59.489351 +39 19 44.23810
 2018-Nov-29 00:17 N   19 51 59.423147 +39 19 44.54020
 2018-Nov-29 00:18 N   19 51 59.356994 +39 19 44.84210
 2018-Nov-29 00:19 N   19 51 59.290891 +39 19 45.14380
 2018-Nov-29 00:20 N   19 51 59.224838 +39 19 45.44530
 2018-Nov-29 00:21 N   19 51 59.158837 +39 19 45.74661
 2018-Nov-29 00:22 N   19 51 59.092887 +39 19 46.04772
 2018-Nov-29 00:23 N   19 51 59.026987 +39 19 46.34865
 2018-Nov-29 00:24 N   19 51 58.961139 +39 19 46.64938
 2018-Nov-29 00:25 Ns  19 51 58.895342 +39 19 46.94992
 2018-Nov-29 00:26 N   19 51 58.829596 +39 19 47.25028
 2018-Nov-29 00:27 N   19 51 58.763902 +39 19 47.55045
 2018-Nov-29 00:28 A   19 51 58.698259 +39 19 47.85043
 2018-Nov-29 00:29 A   19 51 58.632668 +39 19 48.15024
 2018-Nov-29 00:30 A   19 51 58.567128 +39 19 48.44986
 2018-Nov-29 00:31 A   19 51 58.501641 +39 19 48.74931
 2018-Nov-29 00:32 A   19 51 58.436205 +39 19 49.04858
 2018-Nov-29 00:33 A   19 51 58.370822 +39 19 49.34767
 2018-Nov-29 00:34 A   19 51 58.305491 +39 19 49.64659
 2018-Nov-29 00:35 A   19 51 58.240211 +39 19 49.94534
 2018-Nov-29 00:36 A   19 51 58.174985 +39 19 50.24391
 2018-Nov-29 00:37 A   19 51 58.109810 +39 19 50.54232
 2018-Nov-29 00:38 A   19 51 58.044688 +39 19 50.84056
 2018-Nov-29 00:39 A   19 51 57.979619 +39 19 51.13864
 2018-Nov-29 00:40 A   19 51 57.914603 +39 19 51.43655
 2018-Nov-29 00:41 A   19 51 57.849639 +39 19 51.73430
 2018-Nov-29 00:42 A   19 51 57.784728 +39 19 52.03189
 2018-Nov-29 00:43 A   19 51 57.719870 +39 19 52.32932
 2018-Nov-29 00:44 A   19 51 57.655065 +39 19 52.62659
 2018-Nov-29 00:45 A   19 51 57.590313 +39 19 52.92371
 2018-Nov-29 00:46 A   19 51 57.525615 +39 19 53.22068
 2018-Nov-29 00:47 A   19 51 57.460969 +39 19 53.51750
 2018-Nov-29 00:48 A   19 51 57.396378 +39 19 53.81416
 2018-Nov-29 00:49 A   19 51 57.331839 +39 19 54.11068
 2018-Nov-29 00:50 A   19 51 57.267354 +39 19 54.40705
 2018-Nov-29 00:51 A   19 51 57.202923 +39 19 54.70327
 2018-Nov-29 00:52 A   19 51 57.138546 +39 19 54.99936
 2018-Nov-29 00:53 A   19 51 57.074222 +39 19 55.29530
 2018-Nov-29 00:54 A   19 51 57.009952 +39 19 55.59110
 2018-Nov-29 00:55 A   19 51 56.945736 +39 19 55.88676
 2018-Nov-29 00:56 A   19 51 56.881574 +39 19 56.18229
 2018-Nov-29 00:57 A   19 51 56.817466 +39 19 56.47769
 2018-Nov-29 00:58 A   19 51 56.753412 +39 19 56.77295
 2018-Nov-29 00:59 A   19 51 56.689413 +39 19 57.06808
 2018-Nov-29 01:00 A   19 51 56.625468 +39 19 57.36308
 2018-Nov-29 01:01 A   19 51 56.561577 +39 19 57.65796
 2018-Nov-29 01:02 A   19 51 56.497740 +39 19 57.95271
 2018-Nov-29 01:03     19 51 56.433958 +39 19 58.24733
 2018-Nov-29 01:04     19 51 56.370231 +39 19 58.54183
 2018-Nov-29 01:05     19 51 56.306558 +39 19 58.83622
 2018-Nov-29 01:06     19 51 56.242940 +39 19 59.13048
 2018-Nov-29 01:07     19 51 56.179377 +39 19 59.42463
 2018-Nov-29 01:08     19 51 56.115868 +39 19 59.71866
 2018-Nov-29 01:09     19 51 56.052415 +39 20 00.01259
 2018-Nov-29 01:10     19 51 55.989016 +39 20 00.30639
 2018-Nov-29 01:11     19 51 55.925672 +39 20 00.60009
 2018-Nov-29 01:12     19 51 55.862384 +39 20 00.89369
 2018-Nov-29 01:13     19 51 55.799150 +39 20 01.18717
 2018-Nov-29 01:14     19 51 55.735971 +39 20 01.48055
 2018-Nov-29 01:15     19 51 55.672848 +39 20 01.77383
 2018-Nov-29 01:16     19 51 55.609780 +39 20 02.06701
 2018-Nov-29 01:17     19 51 55.546768 +39 20 02.36009
 2018-Nov-29 01:18     19 51 55.483810 +39 20 02.65307
 2018-Nov-29 01:19     19 51 55.420908 +39 20 02.94596
 2018-Nov-29 01:20     19 51 55.358062 +39 20 03.23875
 2018-Nov-29 01:21     19 51 55.295271 +39 20 03.53146
 2018-Nov-29 01:22     19 51 55.232536 +39 20 03.82407
 2018-Nov-29 01:23     19 51 55.169856 +39 20 04.11659
 2018-Nov-29 01:24     19 51 55.107232 +39 20 04.40903
 2018-Nov-29 01:25     19 51 55.044664 +39 20 04.70138
 2018-Nov-29 01:26     19 51 54.982151 +39 20 04.99365
 2018-Nov-29 01:27     19 51 54.919694 +39 20 05.28584
 2018-Nov-29 01:28     19 51 54.857293 +39 20 05.57796
 2018-Nov-29 01:29     19 51 54.794948 +39 20 05.86999
 2018-Nov-29 01:30     19 51 54.732658 +39 20 06.16195
 2018-Nov-29 01:31     19 51 54.670425 +39 20 06.45383
 2018-Nov-29 01:32     19 51 54.608247 +39 20 06.74564
 2018-Nov-29 01:33     19 51 54.546126 +39 20 07.03739
 2018-Nov-29 01:34     19 51 54.484060 +39 20 07.32906
 2018-Nov-29 01:35     19 51 54.422051 +39 20 07.62067
 2018-Nov-29 01:36     19 51 54.360098 +39 20 07.91221
 2018-Nov-29 01:37     19 51 54.298201 +39 20 08.20369
 2018-Nov-29 01:38     19 51 54.236360 +39 20 08.49511
 2018-Nov-29 01:39     19 51 54.174575 +39 20 08.78647
